NUSAT-1 (FRESCO)        
1 41557U 16033B   21358.52313586  .00008547  00000+0  28918-3 0  9991
2 41557  97.3927  91.5393 0010737 281.6192 202.3439 15.30806072310591
BEESAT-4                
1 41619U 16040W   21357.68856740  .00009443  00000+0  35903-3 0  9996
2 41619  97.2446  48.3516 0010970  30.4829 329.7045 15.26932794293872
CAS-2T & KS-1Q          
1 41847U 16066G   21358.12152631  .00000433  00000+0  75090-4 0  9997
2 41847  98.5772  57.7953 0365129  14.2177 346.8962 14.38307889269149
NAYIF-1 (EO-88)         
1 42017U 17008BX  21358.17086763  .00009201  00000+0  32107-3 0  9994
2 42017  97.2943  62.3100 0006651 141.8673 218.3039 15.29802813270240
ZHUHAI-1 02 (CAS-4B)    
1 42759U 17034B   21358.55337211  .00002235  00000+0  14583-3 0  9993
2 42759  43.0171 215.6860 0009092 276.7105 169.2416 15.10652827249899
ZHUHAI-1 01 (CAS-4A)    
1 42761U 17034D   21358.53231166  .00002429  00000+0  15697-3 0  9998
2 42761  43.0177 214.7206 0009525 276.8945 163.3684 15.10740726249894
MAX VALIER SAT          
1 42778U 17036P   21358.12438040  .00005295  00000+0  21782-3 0  9999
2 42778  97.2312  40.3452 0010459 220.0156 140.0312 15.24509101250171
RADFXSAT (FOX-1B)       
1 43017U 17073E   21358.14186111  .00003334  00000+0  25733-3 0  9990
2 43017  97.6920 254.4689 0254245  41.4153 320.6027 14.80054368221170
FOX-1D (AO-92)          
1 43137U 18004AC  21358.46496874  .00006701  00000+0  26063-3 0  9991
2 43137  97.3894  70.4748 0006838 258.6399 101.4072 15.26335387219625
DIWATA-2B               
1 43678U 18084H   21358.47544956  .00000852  00000+0  90074-4 0  9990
2 43678  97.9477 125.0334 0010824 137.0168 223.1887 14.91863424171767
ES'HAIL 2               
1 43700U 18090A   21357.88580890  .00000162  00000+0  00000+0 0  9993
2 43700   0.0176  32.4703 0002263 265.5547 139.2972  1.00272513 11260
FOX-1CLIFF (AO-95)      
1 43770U 18099N   21358.14306993  .00002177  00000+0  20064-3 0  9993
2 43770  97.6453  63.9500 0015518 138.8371 221.4023 14.95617815166803
ITASAT 1                
1 43786U 18099AE  21358.16089913  .00001262  00000+0  11772-3 0  9992
2 43786  97.6476  64.7768 0016153 132.1793 228.0803 14.95873999166841
JY1SAT (JO-97)          
1 43803U 18099AX  21358.15711950  .00001700  00000+0  15556-3 0  9995
2 43803  97.6439  64.5105 0016167 131.5428 228.7183 14.96185645166850
UWE-4                   
1 43880U 18111E   21358.48039870  .00002500  00000+0  22083-3 0  9997
2 43880  97.6773 262.8640 0012126 180.1335 179.9886 14.97204240161510
NEXUS (FO-99)           
1 43937U 19003F   21357.66221834  .00008100  00000+0  30567-3 0  9991
2 43937  97.1538  33.1464 0023984  63.1130 297.2557 15.27006028163123
PSAT2 (NO-104)          
1 44354U 19036R   21357.88332955  .00031835  00000+0  38102-3 0  9996
2 44354  28.5275 297.1964 0294221 181.0949 178.9018 15.21829319137771
BRICSAT2 (NO-103)       
1 44355U 19036S   21357.92081946  .00092179 -45331-5  71668-3 0  9998
2 44355  28.5234 211.5665 0193854 320.7021  37.9653 15.49277236138627
JAISAT-1                
1 44419U 19038F   21358.17289794  .00006124  00000+0  33288-3 0  9998
2 44419  97.6154 322.5428 0021331  22.4130 337.8029 15.14665792136507
DUCHIFAT-3              
1 44854U 19089C   21358.48451852  .00002530  00000+0  20626-3 0  9996
2 44854  36.9661  56.5499 0008329 246.0527 113.9376 14.99895821111643
CAS-6 (TO-108)          
1 44881U 19093C   21358.18985072  .00000344  00000+0  50501-4 0  9991
2 44881  97.9111  74.8094 0016031  40.6112 319.6313 14.81528055108826
RS-44 & BREEZE-KM R/B   
1 44909U 19096E   21358.45392144  .00000017  00000+0  24744-4 0  9994
2 44909  82.5213 346.5617 0217627   9.2035 351.2955 12.79711826 93179
ORBITAL FACTORY 2 (OF-2)
1 45113U 19071C   21357.96923609  .00013113  00000+0  35334-3 0  9993
2 45113  51.6393 197.2739 0010533 254.9456 105.0362 15.38106256106313
HUSKYSAT-1 (HO-107)     
1 45119U 19071J   21358.37671963  .00011643  00000+0  31660-3 0  9992
2 45119  51.6383 194.7323 0010048 252.7471 107.2414 15.37948873106379
BY70-2                  
1 45857U 20042B   21358.56126224  .00003748  00000+0  52930-3 0  9997
2 45857  97.9725  72.2823 0009383 324.5304  35.5313 14.77745965 79616
SALSAT                  
1 46495U 20068K   21357.92848578  .00000792  00000+0  62166-4 0  9995
2 46495  97.7105 294.4900 0016981 146.1142 214.1175 15.03718304 67805
BY70-3                  
1 46839U 20079N   21358.47147083  .00013781  00000+0  39815-3 0  9999
2 46839  97.2232  68.5799 0005435 234.8600 252.1910 15.35748571 63343
RADFXSAT-2 (AO-109)     
1 47311U 21002C   21357.87709000  .00005503  00000+0  24321-3 0  9997
2 47311  60.6865 301.6512 0032095 144.8003 215.5213 15.22626282 51704
UVSQ-SAT                
1 47438U 21006AB  21357.74274087  .00004266  00000+0  23949-3 0  9999
2 47438  97.4637  55.3871 0013124 157.7729 202.4074 15.13793249 50684
DIY-1 (ARDUIQUBE)       
1 47963U 21022AH  21357.69079214  .00010645  00000+0  67891-3 0  9991
2 47963  97.5447 256.6563 0019873  21.6852 338.5214 15.08723535 40416
